$$SOE
2460154.500000000, A.D. 2023-Jul-29 00:00:00.0000, -4.051923971502833E+08, 1.490197772834150E+08, 3.099995571488634E+06,
2460161.500000000, A.D. 2023-Aug-05 00:00:00.0000, -4.093042527013243E+08, 1.393466092405875E+08, 3.577977882691570E+06,
2460168.500000000, A.D. 2023-Aug-12 00:00:00.0000, -4.131703772805890E+08, 1.295897432518578E+08, 4.053813563084662E+06,
2460175.500000000, A.D. 2023-Aug-19 00:00:00.0000, -4.167895610030492E+08, 1.197553841649275E+08, 4.527227875403114E+06,
2460182.500000000, A.D. 2023-Aug-26 00:00:00.0000, -4.201607456507626E+08, 1.098497256228532E+08, 4.997949883871213E+06,
2460189.500000000, A.D. 2023-Sep-02 00:00:00.0000, -4.232830225541894E+08, 9.987894680812159E+07, 5.465712538508199E+06,
2460196.500000000, A.D. 2023-Sep-09 00:00:00.0000, -4.261556304253572E+08, 8.984920920666781E+07, 5.930252742056973E+06,
2460203.500000000, A.D. 2023-Sep-16 00:00:00.0000, -4.287779529803172E+08, 7.976665333109976E+07, 6.391311379650734E+06,
2460210.500000000, A.D. 2023-Sep-23 00:00:00.0000, -4.311495159398364E+08, 6.963739568700142E+07, 6.848633296785679E+06,
2460217.500000000, A.D. 2023-Sep-30 00:00:00.0000, -4.332699837527505E+08, 5.946752716965386E+07, 7.301967354394343E+06,
2460224.500000000, A.D. 2023-Oct-07 00:00:00.0000, -4.351391584013247E+08, 4.926311234440987E+07, 7.751066732827440E+06,
2460231.500000000, A.D. 2023-Oct-14 00:00:00.0000, -4.367569792556938E+08, 3.903018629460374E+07, 8.195689118900511E+06,
2460238.500000000, A.D. 2023-Oct-21 00:00:00.0000, -4.381235207530789E+08, 2.877475063804029E+07, 8.635596611407472E+06,
2460245.500000000, A.D. 2023-Oct-28 00:00:00.0000, -4.392389893275323E+08, 1.850277096857687E+07, 9.070555661076209E+06,
2460252.500000000, A.D. 2023-Nov-04 00:00:00.0000, -4.401037208437971E+08, 8.220174947176650E+06, 9.500337097043954E+06,
2460259.500000000, A.D. 2023-Nov-11 00:00:00.0000, -4.407181783630214E+08, -2.067149561543358E+06, 9.924716174896814E+06,
2460266.500000000, A.D. 2023-Nov-18 00:00:00.0000, -4.410829500251931E+08, -1.235335637479704E+07, 1.034347262135530E+07,
2460273.500000000, A.D. 2023-Nov-25 00:00:00.0000, -4.411987469787851E+08, -2.263264288003927E+07, 1.075639067125291E+07,
2460280.500000000, A.D. 2023-Dec-02 00:00:00.0000, -4.410664013324950E+08, -3.289925194128714E+07, 1.116325909372281E+07,
2460287.500000000, A.D. 2023-Dec-09 00:00:00.0000, -4.406868640543575E+08, -4.314747388604981E+07, 1.156387119597486E+07,
2460294.500000000, A.D. 2023-Dec-16 00:00:00.0000, -4.400612025336565E+08, -5.337164856375924E+07, 1.195802477958439E+07,
2460301.500000000, A.D. 2023-Dec-23 00:00:00.0000, -4.391905974594542E+08, -6.356616679118364E+07, 1.234552207371317E+07,
2460308.500000000, A.D. 2023-Dec-30 00:00:00.0000, -4.380763403570070E+08, -7.372547013832441E+07, 1.272616985404048E+07,
2460315.500000000, A.D. 2024-Jan-06 00:00:00.0000, -4.367198335553036E+08, -8.384405141885953E+07, 1.309977971701499E+07,
2460322.500000000, A.D. 2024-Jan-13 00:00:00.0000, -4.351225894142256E+08, -9.391645769537519E+07, 1.346616807070750E+07,
2460329.500000000, A.D. 2024-Jan-20 00:00:00.0000, -4.332862275871668E+08, -1.039372927178648E+08, 1.382515598214271E+07,
2460336.500000000, A.D. 2024-Jan-27 00:00:00.0000, -4.312124723463829E+08, -1.139012181481494E+08, 1.417656912036096E+07,
2460343.500000000, A.D. 2024-Feb-03 00:00:00.0000, -4.289031504009567E+08, -1.238029545251448E+08, 1.452023775669822E+07,
2460350.500000000, A.D. 2024-Feb-10 00:00:00.0000, -4.263601889341632E+08, -1.336372822671466E+08, 1.485599677289212E+07,
2460357.500000000, A.D. 2024-Feb-17 00:00:00.0000, -4.235856137252554E+08, -1.433990427062171E+08, 1.518368566498552E+07,
2460364.500000000, A.D. 2024-Feb-24 00:00:00.0000, -4.205815473216154E+08, -1.530831391420200E+08, 1.550314854106706E+07,
2460371.500000000, A.D. 2024-Mar-02 00:00:00.0000, -4.173502072324122E+08, -1.626845379499286E+08, 1.581423410763168E+07,
2460378.500000000, A.D. 2024-Mar-09 00:00:00.0000, -4.138939040048848E+08, -1.721982698089313E+08, 1.611679562680750E+07,
2460385.500000000, A.D. 2024-Mar-16 00:00:00.0000, -4.102150387876913E+08, -1.816194308548738E+08, 1.641069082443238E+07,
2460392.500000000, A.D. 2024-Mar-23 00:00:00.0000, -4.063161004843100E+08, -1.909431826526442E+08, 1.669578184921392E+07,
2460399.500000000, A.D. 2024-Mar-30 00:00:00.0000, -4.021996647366750E+08, -2.001647510169418E+08, 1.697193548637597E+07,
2460406.500000000, A.D. 2024-Apr-06 00:00:00.0000, -3.978683944830045E+08, -2.092794270528280E+08, 1.723902332709226E+07,
2460413.500000000, A.D. 2024-Apr-13 00:00:00.0000, -3.933250385398250E+08, -2.182825695825293E+08, 1.749692163648938E+07,
2460420.500000000, A.D. 2024-Apr-20 00:00:00.0000, -3.885724291597918E+08, -2.271696062829906E+08, 1.774551122649594E+07,
2460427.500000000, A.D. 2024-Apr-27 00:00:00.0000, -3.836134800797279E+08, -2.359360340968842E+08, 1.798467742684416E+07,
2460434.500000000, A.D. 2024-May-04 00:00:00.0000, -3.784511849684943E+08, -2.445774196232886E+08, 1.821431008861560E+07,
2460441.500000000, A.D. 2024-May-11 00:00:00.0000, -3.730886160352191E+08, -2.530893995934967E+08, 1.843430359020735E+07,
2460448.500000000, A.D. 2024-May-18 00:00:00.0000, -3.675289227157720E+08, -2.614676814137208E+08, 1.864455684022237E+07,
2460455.500000000, A.D. 2024-May-25 00:00:00.0000, -3.617753304128317E+08, -2.697080437845998E+08, 1.884497327481258E+07,
2460462.500000000, A.D. 2024-Jun-01 00:00:00.0000, -3.558311392296622E+08, -2.778063374572882E+08, 1.903546083970512E+07,
2460469.500000000, A.D. 2024-Jun-08 00:00:00.0000, -3.496997224510651E+08, -2.857584861511012E+08, 1.921593193285257E+07,
2460476.500000000, A.D. 2024-Jun-15 00:00:00.0000, -3.433845243715274E+08, -2.935604870892469E+08, 1.938630331600183E+07,
2460483.500000000, A.D. 2024-Jun-22 00:00:00.0000, -3.368890584746246E+08, -3.012084099786536E+08, 1.954649618374221E+07,
2460490.500000000, A.D. 2024-Jun-29 00:00:00.0000, -3.302169080834517E+08, -3.086983962562228E+08, 1.969643643602270E+07,
2460497.500000000, A.D. 2024-Jul-06 00:00:00.0000, -3.233717268360390E+08, -3.160266610753919E+08, 1.983605470978512E+07,
2460504.500000000, A.D. 2024-Jul-13 00:00:00.0000, -3.163572370364805E+08, -3.231894952114131E+08, 1.996528622204134E+07,
2460511.500000000, A.D. 2024-Jul-20 00:00:00.0000, -3.091772278665217E+08, -3.301832657377081E+08, 2.008407070065284E+07,
2460518.500000000, A.D. 2024-Jul-27 00:00:00.0000, -3.018355541115291E+08, -3.370044164335323E+08, 2.019235238458388E+07,
2460525.500000000, A.D. 2024-Aug-03 00:00:00.0000, -2.943361351255600E+08, -3.436494682994205E+08, 2.029008003778890E+07,
2460532.500000000, A.D. 2024-Aug-10 00:00:00.0000, -2.866829538679575E+08, -3.501150201871582E+08, 2.037720696097200E+07,
2460539.500000000, A.D. 2024-Aug-17 00:00:00.0000, -2.788800559631253E+08, -3.563977495249136E+08, 2.045369099853316E+07,
2460546.500000000, A.D. 2024-Aug-24 00:00:00.0000, -2.709315487550285E+08, -3.624944131615877E+08, 2.051949453625101E+07,
2460553.500000000, A.D. 2024-Aug-31 00:00:00.0000, -2.628416002401730E+08, -3.684018483929450E+08, 2.057458447398187E+07,
2460560.500000000, A.D. 2024-Sep-07 00:00:00.0000, -2.546144375127015E+08, -3.741169740433887E+08, 2.061893215003812E+07,
2460567.500000000, A.D. 2024-Sep-14 00:00:00.0000, -2.462543446348166E+08, -3.796367906066803E+08, 2.065251329059184E+07,
2460574.500000000, A.D. 2024-Sep-21 00:00:00.0000, -2.377656619582897E+08, -3.849583790313897E+08, 2.067530820350258E+07,
2460581.500000000, A.D. 2024-Sep-28 00:00:00.0000, -2.291527873800467E+08, -3.900789013783122E+08, 2.068730199696006E+07,
2460588.500000000, A.D. 2024-Oct-05 00:00:00.0000, -2.204201758584447E+08, -3.949956033507408E+08, 2.068848448613676E+07,
2460595.500000000, A.D. 2024-Oct-12 00:00:00.0000, -2.115723375491293E+08, -3.997058157211149E+08, 2.067885006448062E+07,
2460602.500000000, A.D. 2024-Oct-19 00:00:00.0000, -2.026138363106647E+08, -4.042069549274588E+08, 2.065839767827564E+07,
2460609.500000000, A.D. 2024-Oct-26 00:00:00.0000, -1.935492886116674E+08, -4.084965236422805E+08, 2.062713084208587E+07,
2460616.500000000, A.D. 2024-Nov-02 00:00:00.0000, -1.843833625808433E+08, -4.125721114626216E+08, 2.058505765939280E+07,
2460623.500000000, A.D. 2024-Nov-09 00:00:00.0000, -1.751207771013267E+08, -4.164313957006850E+08, 2.053219084123597E+07,
2460630.500000000, A.D. 2024-Nov-16 00:00:00.0000, -1.657663009211620E+08, -4.200721422751455E+08, 2.046854772052827E+07,
2460637.500000000, A.D. 2024-Nov-23 00:00:00.0000, -1.563247517308083E+08, -4.234922067534474E+08, 2.039415025375515E+07,
2460644.500000000, A.D. 2024-Nov-30 00:00:00.0000, -1.468009949971713E+08, -4.266895355879770E+08, 2.030902498757794E+07,
2460651.500000000, A.D. 2024-Dec-07 00:00:00.0000, -1.371999421324703E+08, -4.296621671255942E+08, 2.021320298634821E+07,
2460658.500000000, A.D. 2024-Dec-14 00:00:00.0000, -1.275265486842419E+08, -4.324082311662619E+08, 2.010671988379908E+07,
2460665.500000000, A.D. 2024-Dec-21 00:00:00.0000, -1.177858148622036E+08, -4.349259483106474E+08, 1.998961617015558E+07,
2460672.500000000, A.D. 2024-Dec-28 00:00:00.0000, -1.079827864261148E+08, -4.372136320638492E+08, 1.986193729120559E+07,
2460679.500000000, A.D. 2025-Jan-04 00:00:00.0000, -9.812255333467683E+07, -4.392696913203629E+08, 1.972373351549286E+07,
2460686.500000000, A.D. 2025-Jan-11 00:00:00.0000, -8.821024797469729E+07, -4.410926315713342E+08, 1.957505987265778E+07,
2460693.500000000, A.D. 2025-Jan-18 00:00:00.0000, -7.825104388526985E+07, -4.426810557527558E+08, 1.941597617221293E+07,
2460700.500000000, A.D. 2025-Jan-25 00:00:00.0000, -6.825015473101006E+07, -4.440336652085140E+08, 1.924654704182962E+07,
2460707.500000000, A.D. 2025-Feb-01 00:00:00.0000, -5.821283333206563E+07, -4.451492607975468E+08, 1.906684196540055E+07,
2460714.500000000, A.D. 2025-Feb-08 00:00:00.0000, -4.814437068933210E+07, -4.460267441246923E+08, 1.887693531717440E+07,
2460721.500000000, A.D. 2025-Feb-15 00:00:00.0000, -3.805009497280581E+07, -4.466651189150193E+08, 1.867690638775888E+07,
$$EOE